NORAD_CAT_ID,OBJECT_NAME,OBJECT_TYPE,EPOCH,MEAN_MOTION,ECCENTRICITY,INCLINATION,RA_OF_ASC_NODE,ARG_OF_PERICENTER,MEAN_ANOMALY,BSTAR,MEAN_MOTION_DOT,MEAN_MOTION_DDOT,TLE_LINE0,TLE_LINE1,TLE_LINE2,SEMIMAJOR_AXIS,PERIOD,APOGEE,PERIGEE,DECAYED
54159.0,STARLINK-5294,PAYLOAD,2023-01-10 13:05:20,15.08832076,0.0001049,53.2184,155.0738,83.5747,276.5365,-5.2625e-05,-1.125e-05,0.0,0 STARLINK-5294,1 54159U 22141C   23010.54537615 -.00001125  00000-0 -52625-4 0  9991,2 54159  53.2184 155.0738 0001049  83.5747 276.5365 15.08832076 11484,6917.905,95.438,540.495,539.044,0.0
54159.0,STARLINK-5294,PAYLOAD,2023-01-10 16:16:06,15.08831937,0.0001048,53.2182,154.4791,88.8612,271.25,-5.4258e-05,-1.151e-05,0.0,0 STARLINK-5294,1 54159U 22141C   23010.67785658 -.00001151  00000-0 -54258-4 0  9990,2 54159  53.2182 154.4791 0001048  88.8612 271.2500 15.08831937 11503,6917.905,95.438,540.495,539.045,0.0
54159.0,STARLINK-5294,PAYLOAD,2023-01-11 12:56:08,15.08822376,0.0001262,53.2173,150.6151,82.9421,277.1715,-3.9733e-05,-9.2e-06,0.0,0 STARLINK-5294,1 54159U 22141C   23011.53899044 -.00000920  00000-0 -39733-4 0  9995,2 54159  53.2173 150.6151 0001262  82.9421 277.1715 15.08822376 11636,6917.934,95.439,540.672,538.9259999999998,0.0
54159.0,STARLINK-5294,PAYLOAD,2023-01-11 19:17:40,15.08834089,0.0001262999999999,53.2169,149.4257,87.2943,272.8194,4.9303e-05,4.97e-06,0.0,0 STARLINK-5294,1 54159U 22141C   23011.80394375  .00000497  00000-0  49303-4 0  9993,2 54159  53.2169 149.4257 0001263  87.2943 272.8194 15.08834089 11673,6917.898,95.438,540.637,538.89,0.0
54159.0,STARLINK-5294,PAYLOAD,2023-01-12 01:39:13,15.08829374,0.0001296,53.2175,148.2353,85.4134,274.7006,-5.766e-06,-3.8e-06,0.0,0 STARLINK-5294,1 54159U 22141C   23012.06891042 -.00000380  00000-0 -57660-5 0  9994,2 54159  53.2175 148.2353 0001296  85.4134 274.7006 15.08829374 11711,6917.913000000001,95.438,540.674,538.881,0.0
54159.0,STARLINK-5294,PAYLOAD,2023-01-12 19:08:27,15.08837,0.000122,53.2169,144.9653,89.8652,270.248,0.00019656,2.842e-05,0.0,0 STARLINK-5294,1 54159U 22141C   23012.79754358  .00002842  00000-0  19656-3 0  9996,2 54159  53.2169 144.9653 0001220  89.8652 270.2480 15.08837000 11824,6917.89,95.438,540.599,538.911,0.0
54159.0,STARLINK-5294,PAYLOAD,2023-01-13 01:30:00,15.08830869,0.0001182,53.2145,143.7738,83.6872,276.4255,0.00013816,1.911e-05,0.0,0 STARLINK-5294,1 54159U 22141C   23013.06251149  .00001911  00000-0  13816-3 0  9995,2 54159  53.2145 143.7738 0001182  83.6872 276.4255 15.08830869 11860,6917.908,95.438,540.591,538.956,0.0
54159.0,STARLINK-5294,PAYLOAD,2023-01-13 12:37:43,15.0883527,9.78e-05,53.219,141.6928,88.8418,271.2687,6.4465e-05,7.38e-06,0.0,0 STARLINK-5294,1 54159U 22141C   23013.52619474  .00000738  00000-0  64465-4 0  9998,2 54159  53.2190 141.6928 0000978  88.8418 271.2687 15.08835270 11934,6917.895,95.438,540.436,539.0830000000001,0.0
54159.0,STARLINK-5294,PAYLOAD,2023-01-14 01:20:47,15.08846561,0.0001249,53.2189,139.3143,79.0639,281.0493,0.00021675,3.164e-05,0.0,0 STARLINK-5294,1 54159U 22141C   23014.05610509  .00003164  00000-0  21675-3 0  9998,2 54159  53.2189 139.3143 0001249  79.0639 281.0493 15.08846561 12013,6917.86,95.437,540.589,538.861,0.0
54159.0,STARLINK-5294,PAYLOAD,2023-01-14 10:53:07,15.08835084,0.0001115999999999,53.2164,137.5343,89.9159,270.1961,7.3346e-05,8.8e-06,0.0,0 STARLINK-5294,1 54159U 22141C   23014.45355635  .00000880  00000-0  73346-4 0  9993,2 54159  53.2164 137.5343 0001116  89.9159 270.1961 15.08835084 12071,6917.895,95.438,540.5319999999999,538.988,0.0
54159.0,STARLINK-5294,PAYLOAD,2023-01-15 01:11:34,15.08840839,0.0001429,53.2176,134.8567,92.7411,267.3744,0.0001508,2.113e-05,0.0,0 STARLINK-5294,1 54159U 22141C   23015.04971050  .00002113  00000-0  15080-3 0  9995,2 54159  53.2176 134.8567 0001429  92.7411 267.3744 15.08840839 12163,6917.878000000001,95.438,540.731,538.754,0.0
54159.0,STARLINK-5294,PAYLOAD,2023-01-15 10:43:55,15.08831715,0.0002110999999999,53.2153,133.0695,91.1678,268.9556,-8.2591e-06,-4.2e-06,0.0,0 STARLINK-5294,1 54159U 22141C   23015.44716461 -.00000420  00000-0 -82591-5 0  9996,2 54159  53.2153 133.0695 0002111  91.1678 268.9556 15.08831715 12226,6917.906,95.438,541.231,538.31,0.0
54159.0,STARLINK-5294,PAYLOAD,2023-01-15 12:19:17,15.08829794,8.41e-05,53.2165,132.7776,103.12,256.9886,-9.7625e-06,-4.43e-06,0.0,0 STARLINK-5294,1 54159U 22141C   23015.51340193 -.00000443  00000-0 -97625-5 0  9998,2 54159  53.2165 132.7776 0000841 103.1200 256.9886 15.08829794 12236,6917.911999999999,95.438,540.3580000000001,539.195,0.0
54159.0,STARLINK-5294,PAYLOAD,2023-01-15 13:54:40,15.08847149,0.0001276,53.2175,132.4767,78.0903,282.0233,4.7184e-06,-2.13e-06,0.0,0 STARLINK-5294,1 54159U 22141C   23015.57963311 -.00000213  00000-0  47184-5 0  9996,2 54159  53.2175 132.4767 0001276  78.0903 282.0233 15.08847149 12248,6917.859,95.437,540.606,538.841,0.0
54159.0,STARLINK-5294,PAYLOAD,2023-01-16 13:45:26,15.08852785,0.0001139999999999,53.2179,128.0156,106.4685,253.6432,0.00016126,2.28e-05,0.0,0 STARLINK-5294,1 54159U 22141C   23016.57322147  .00002280  00000-0  16126-3 0  9998,2 54159  53.2179 128.0156 0001140 106.4685 253.6432 15.08852785 12391,6917.840999999999,95.437,540.495,538.918,0.0
54159.0,STARLINK-5294,PAYLOAD,2023-01-16 16:56:12,15.0885467,0.0001330999999999,53.2189,127.4165,116.8242,243.2886,0.00018239,2.617e-05,0.0,0 STARLINK-5294,1 54159U 22141C   23016.70569861  .00002617  00000-0  18239-3 0  9990,2 54159  53.2189 127.4165 0001331 116.8242 243.2886 15.08854670 12417,6917.835999999999,95.437,540.621,538.78,0.0
54159.0,STARLINK-5294,PAYLOAD,2023-01-17 00:53:10,15.08820439,0.0001579,53.2172,125.9378,75.2665,284.8502,4.8559e-05,4.85e-06,0.0,0 STARLINK-5294,1 54159U 22141C   23017.03692701  .00000485  00000-0  48559-4 0  9997,2 54159  53.2172 125.9378 0001579  75.2665 284.8502 15.08820439 12466,6917.94,95.439,540.898,538.7130000000001,0.0
54159.0,STARLINK-5294,PAYLOAD,2023-01-17 10:25:29,15.0881718,0.0001392,53.2165,124.1508,104.959,255.1556,-2.0157e-05,-6.08e-06,0.0,0 STARLINK-5294,1 54159U 22141C   23017.43437454 -.00000608  00000-0 -20157-4 0  9996,2 54159  53.2165 124.1508 0001392 104.9590 255.1556 15.08817180 12520,6917.95,95.439,540.778,538.852,0.0
54159.0,STARLINK-5294,PAYLOAD,2023-01-18 10:16:16,15.08828039,7.85e-05,53.2201,119.6881,101.6414,258.4666,0.00031402,4.712e-05,0.0,0 STARLINK-5294,1 54159U 22141C   23018.42796473  .00004712  00000-0  31402-3 0  9997,2 54159  53.2201 119.6881 0000785 101.6414 258.4666 15.08828039 12677,6917.917,95.438,540.325,539.239,0.0
54159.0,STARLINK-5294,PAYLOAD,2023-01-18 13:27:00,15.08863393,9.3e-05,53.2192,119.0946,105.3723,254.7372,0.0002542,3.763e-05,0.0,0 STARLINK-5294,1 54159U 22141C   23018.56042336  .00003763  00000-0  25420-3 0  9992,2 54159  53.2192 119.0946 0000930 105.3723 254.7372 15.08863393 12695,6917.809,95.436,540.317,539.031,0.0
54159.0,STARLINK-5294,PAYLOAD,2023-01-18 22:59:19,15.08854348,0.0001012,53.2182,117.3104,85.9924,274.1183,2.5852e-05,1.24e-06,0.0,0 STARLINK-5294,1 54159U 22141C   23018.95786970  .00000124  00000-0  25852-4 0  9992,2 54159  53.2182 117.3104 0001012  85.9924 274.1183 15.08854348 12752,6917.837,95.437,540.4019999999999,539.001,0.0
54159.0,STARLINK-5294,PAYLOAD,2023-01-19 10:07:03,15.08824562,0.000154,53.2167,115.2317,80.4317,279.6849,0.00019137,2.758e-05,0.0,0 STARLINK-5294,1 54159U 22141C   23019.42157200  .00002758  00000-0  19137-3 0  9996,2 54159  53.2167 115.2317 0001540  80.4317 279.6849 15.08824562 12822,6917.928000000001,95.439,540.8580000000001,538.727,0.0
54159.0,STARLINK-5294,PAYLOAD,2023-01-19 13:17:48,15.0884598,8.2e-05,53.218,114.635,108.4959,251.6122,0.0001786,2.556e-05,0.0,0 STARLINK-5294,1 54159U 22141C   23019.55403522  .00002556  00000-0  17860-3 0  9998,2 54159  53.2180 114.6350 0000820 108.4959 251.6122 15.08845980 12843,6917.861999999999,95.437,540.294,539.16,0.0
54159.0,STARLINK-5294,PAYLOAD,2023-01-19 22:50:08,15.08854471,0.0001214,53.2189,112.8503,85.7206,274.3925,-0.00011734,-2.156e-05,0.0,0 STARLINK-5294,1 54159U 22141C   23019.95148456 -.00002156  00000-0 -11734-3 0  9996,2 54159  53.2189 112.8503 0001214  85.7206 274.3925 15.08854471 12907,6917.835999999999,95.437,540.5409999999999,538.861,0.0
54159.0,STARLINK-5294,PAYLOAD,2023-01-20 11:33:13,15.08835332,0.000118,53.2171,110.4745,100.8556,259.2569,9.9739e-05,1.3e-05,0.0,0 STARLINK-5294,1 54159U 22141C   23020.48140558  .00001300  00000-0  99739-4 0  9991,2 54159  53.2171 110.4745 0001180 100.8556 259.2569 15.08835332 12988,6917.895,95.438,540.576,538.943,0.0
54159.0,STARLINK-5294,PAYLOAD,2023-01-20 13:08:35,15.08856597,9.97e-05,53.2178,110.1757,96.9109,263.1997,-3.8645e-05,-9.03e-06,0.0,0 STARLINK-5294,1 54159U 22141C   23020.54763508 -.00000903  00000-0 -38645-4 0  9993,2 54159  53.2178 110.1757 0000997  96.9109 263.1997 15.08856597 12995,6917.83,95.437,540.384,539.005,0.0
54159.0,STARLINK-5294,PAYLOAD,2023-01-21 11:24:00,15.08841224,0.0001325,53.2172,106.011,134.0648,226.0453,9.0351e-06,-1.44e-06,0.0,0 STARLINK-5294,1 54159U 22141C   23021.47500219 -.00000144  00000-0  90351-5 0  9993,2 54159  53.2172 106.0110 0001325 134.0648 226.0453 15.08841224 13137,6917.877,95.437,540.658,538.825,0.0
54159.0,STARLINK-5294,PAYLOAD,2023-01-22 11:14:47,15.08833187,0.0001295,53.2182,101.5493,105.0361,255.0774,7.0187e-05,8.29e-06,0.0,0 STARLINK-5294,1 54159U 22141C   23022.46860873  .00000829  00000-0  70187-4 0  9991,2 54159  53.2182 101.5493 0001295 105.0361 255.0774 15.08833187 13281,6917.901,95.438,540.6619999999999,538.87,0.0
54159.0,STARLINK-5294,PAYLOAD,2023-01-22 12:50:10,15.08848506,0.0001008,53.2177,101.2552,93.5935,266.5173,7.3822e-05,8.88e-06,0.0,0 STARLINK-5294,1 54159U 22141C   23022.53483935  .00000888  00000-0  73822-4 0  9993,2 54159  53.2177 101.2552 0001008  93.5935 266.5173 15.08848506 13290,6917.854,95.437,540.4169999999999,539.0219999999999,0.0
